1 00011U 59001  A 68113.82125766  .00002247 +00000-0 +00000-0 0  9998
2 00011 032.8682 266.9522 1630909 228.9586 115.8265 11.49773179385220
1 00011U 59001  A 68119.64025322  .00001571 +00000-0 +00000-0 0  9990
2 00011 032.8750 246.3657 1636732 259.8821 081.3849 11.49775595385894
1 00011U 59001  A 68133.54082539  .00001077 +00000-0 +00000-0 0  9999
2 00011 032.8834 197.2855 1636755 333.5944 018.9478 11.49798452387491
1 00011U 59001  A 68157.95451505  .00001003 +00000-0 +00000-0 0  9992
2 00011 032.8697 111.0629 1635133 103.2391 275.4997 11.49840971390302
1 00011U 59001  A 68183.82885522  .00000646 +00000-0 +00000-0 0  9999
2 00011 032.8713 019.6826 1635645 240.6270 102.1201 11.49875172393288
1 00011U 59001  A 68201.63651892  .00000324 +00000-0 +00000-0 0  9993
2 00011 032.8857 316.8238 1635541 335.0554 017.8872 11.49881390395338
1 00011U 59001  A 68240.11435605  .00000307 +00000-0 +00000-0 0  9992
2 00011 032.8737 180.9082 1635368 179.4386 180.8380 11.49901504399757
1 00011U 59001  A 68242.11102320  .00000308 +00000-0 +00000-0 0  9990
2 00011 032.8748 173.8685 1635407 190.0435 166.3120 11.49902725399989
1 00011U 59001  A 68320.96747734  .00000781 +00000-0 +00000-0 0  9999
2 00011 032.8807 255.3128 1635280 248.7435 093.1132 11.49979706409056
1 00011U 59001  A 68349.37293161  .00000706 +00000-0 +00000-0 0  9992
2 00011 032.8770 154.9456 1634660 039.6018 331.3178 11.50016440412328
1 00011U 59001  A 69016.54120764  .00000700 +00000-0 +00000-0 0  9995
2 00011 032.8718 037.7617 1633460 215.7917 132.1487 11.50057801416138
1 00011U 59001  A 69036.94894523  .00000868 +00000-0 +00000-0 0  9997
2 00011 032.8840 325.6686 1632583 324.1424 025.9554 11.50095907418485
1 00011U 59001  A 69051.02134271  .00001282 +00000-0 +00000-0 0  9991
2 00011 032.8761 275.9267 1631301 038.9684 331.7772 11.50138751420101
1 00011U 59001  A 69065.78445493  .00001920 +00000-0 +00000-0 0  9999
2 00011 032.8746 223.7763 1632255 117.3417 260.2517 11.50200750421801
1 00011U 59001  A 69079.58475572  .00002359 +00000-0 +00000-0 0  9990
2 00011 032.8746 175.0301 1631392 190.6842 165.4495 11.50273055423390
1 00011U 59001  A 69088.17698844  .00002867 +00000-0 +00000-0 0  9998
2 00011 032.8735 144.6674 1633162 236.3714 107.0334 11.50334575424385
1 00011U 59001  A 69093.55907209  .00003434 +00000-0 +00000-0 0  9995
2 00011 032.8716 125.6082 1632969 264.9328 076.3610 11.50386666425001
1 00011U 59001  A 69124.90550581  .00003025 +00000-0 +00000-0 0  9992
2 00011 032.8784 014.8206 1629533 071.5621 305.4701 11.50580860428613
1 00011U 59001  A 69134.71386467  .00002352 +00000-0 +00000-0 0  9994
2 00011 032.8677 340.0527 1629983 123.6815 252.9907 11.50614103429744
1 00011U 59001  A 69143.47716205  .00001381 +00000-0 +00000-0 0  9995
2 00011 032.8778 309.0417 1629037 170.3056 193.3305 11.50664250430756
1 00011U 59001  A 69165.51743804  .00001559 +00000-0 +00000-0 0  9996
2 00011 032.8790 231.1100 1628899 287.5703 055.3856 11.50732518433292
1 00011U 59001  A 69195.81463242  .00001176 +00000-0 +00000-0 0  9992
2 00011 032.8721 123.9579 1630953 088.6706 289.9292 11.50806944436782
1 00011U 59001  A 69211.95212799  .00001321 +00000-0 +00000-0 0  9997
2 00011 032.8737 066.8551 1629898 174.4441 187.6795 11.50853863438641
1 00011U 59001  A 69223.66306129  .00000806 +00000-0 +00000-0 0  9996
2 00011 032.8758 025.4472 1628497 236.6883 106.7166 11.50861413439995
1 00011U 59001  A 69252.13243966  .00000541 +00000-0 +00000-0 0  9995
2 00011 032.8824 284.7593 1630071 028.1802 339.8032 11.50893245443274
1 00011U 59001  A 69359.20388861  .00000337 +00000-0 +00000-0 0  9998
2 00011 032.8781 265.8880 1631222 237.6517 105.5767 11.51011796455588
1 00011U 59001  A 70030.65451393  .00000370 +00000-0 +00000-0 0  9993
2 00011 032.8818 136.8534 1631019 071.6750 305.3896 11.51036682459781
1 00011U 59001  A 70104.40343516  .00002160 +00000-0 +00000-0 0  9994
2 00011 032.8674 235.8065 1627570 104.0122 274.6121 11.51178476468272
1 00011U 59001  A 70122.09514124  .00001706 +00000-0 +00000-0 0  9999
2 00011 032.8682 173.1745 1624772 198.2701 155.2110 11.51239608470314
1 00011U 59001  A 70140.39706185  .00001565 +00000-0 +00000-0 0  9995
2 00011 032.8838 108.4009 1628016 295.6608 048.4775 11.51291702472421
1 00011U 59001  A 70192.52832371  .00002521 +00000-0 +00000-0 0  9997
2 00011 032.8681 283.8435 1624008 213.2165 135.5277 11.51527310478438
1 00011U 59001  A 70218.72220728  .00001566 +00000-0 +00000-0 0  9993
2 00011 032.8710 191.0580 1622737 352.6727 005.2557 11.51598008481453
1 00011U 59001  A 70225.83612755  .00001344 +00000-0 +00000-0 0  9992
2 00011 032.8506 165.8503 1622773 030.6152 337.9780 11.51614957482271
1 00011U 59001  A 70233.46969380  .00001507 +00000-0 +00000-0 0  9990
2 00011 032.8611 138.7869 1625159 071.3232 305.6369 11.51638975483153
1 00011U 59001  A 70237.11236146  .00001720 +00000-0 +00000-0 0  9990
2 00011 032.8604 125.8917 1625342 090.7413 287.8837 11.51653619483575
1 00011U 59001  A 70249.51065083  .00001930 +00000-0 +00000-0 0  9990
2 00011 032.8611 081.9959 1627295 156.6807 211.6869 11.51699859485005
1 00011U 59001  A 70253.84447123  .00002140 +00000-0 +00000-0 0  9994
2 00011 032.8594 066.6520 1626982 179.7420 180.4251 11.51720210485507
1 00011U 59001  A 70260.34520289  .00002074 +00000-0 +00000-0 0  9998
2 00011 032.8631 043.6141 1626135 214.3540 134.0504 11.51747191486258
1 00011U 59001  A 70265.80667467  .00001854 +00000-0 +00000-0 0  9999
2 00011 032.8667 024.2594 1625431 243.4619 099.0459 11.51765737486886
1 00011U 59001  A 70282.11031320  .00001477 +00000-0 +00000-0 0  9996
2 00011 032.8701 326.4965 1625736 330.3374 021.3886 11.51819206488768
1 00011U 59001  A 70291.04434560  .00001630 +00000-0 +00000-0 0  9992
2 00011 032.8557 294.8215 1625745 018.0212 347.1734 11.51847197489799
1 00011U 59001  A 70298.76342046  .00001603 +00000-0 +00000-0 0  9995
2 00011 032.8538 267.4274 1626485 059.1967 315.8630 11.51873018490682
1 00011U 59001  A 70304.31324089  .00001751 +00000-0 +00000-0 0  9995
2 00011 032.8511 247.7547 1627082 088.7424 289.8202 11.51894042491324
1 00011U 59001  A 70314.71580580  .00001579 +00000-0 +00000-0 0  9998
2 00011 032.8512 210.9073 1627371 144.1175 228.0495 11.51927035492523
1 00011U 59001  A 70332.48189463  .00001579 +00000-0 +00000-0 0  9997
2 00011 032.8676 147.9553 1625840 238.6847 104.4482 11.51976881494573
1 00011U 59001  A 70333.00199313  .00001288 +00000-0 +00000-0 0  9998
2 00011 032.8676 146.1135 1625829 241.4555 101.2952 11.51973278494636
1 00011U 59001  A 70337.59656239  .00001026 +00000-0 +00000-0 0  9991
2 00011 032.8767 129.8175 1625133 265.9780 075.4235 11.51980043495161
1 00011U 59001  A 70344.61986913  .00001013 +00000-0 +00000-0 0  9993
2 00011 032.8830 104.9196 1624721 303.3953 042.1355 11.51993523495970
1 00011U 59001  A 70352.07788360  .00001076 +00000-0 +00000-0 0  9997
2 00011 032.8805 078.4766 1624721 343.1714 012.0525 11.52010377496836
1 00011U 59001  A 70361.44406961  .00000783 +00000-0 +00000-0 0  9996
2 00011 032.8763 045.2717 1623569 033.1229 336.1214 11.52025749497917
1 00011U 59001  A 71003.46796844  .00000464 +00000-0 +00000-0 0  9990
2 00011 032.8704 020.3657 1624913 070.5658 306.2904 11.52029710498720
1 00011U 59001  A 71022.79665637  .00000007 +00000-0 +00000-0 0  9995
2 00011 032.8766 311.8622 1624746 173.5589 188.8855 11.52043860500959
1 00011U 59001  A 71026.95585856  .00000267 +00000-0 +00000-0 0  9999
2 00011 032.8814 297.1051 1624708 195.7055 158.6650 11.52048167501434
1 00011U 59001  A 71031.72195404  .00000810 +00000-0 +00000-0 0  9990
2 00011 032.8838 280.2223 1625024 221.1098 125.5137 11.52056753501980
1 00011U 59001  A 71036.14212049  .00000458 +00000-0 +00000-0 0  9994
2 00011 032.8855 264.5643 1624470 244.6463 097.7378 11.52059535502495
1 00011U 59001  A 71045.50496758  .00000348 +00000-0 +00000-0 0  9993
2 00011 032.8811 231.3629 1624789 294.5443 049.4461 11.52065447503574
1 00011U 59001  A 71050.01396266  .00000296 +00000-0 +00000-0 0  9990
2 00011 032.8838 215.3851 1624777 318.5658 030.2210 11.52067710504097
1 00011U 59001  A 71064.32262314  .00000432 +00000-0 +00000-0 0  9997
2 00011 032.8716 164.6542 1623881 034.8962 334.7999 11.52078805505742
1 00011U 59001  A 71072.55994133  .00000232 +00000-0 +00000-0 0  9990
2 00011 032.8655 135.4328 1624664 078.8439 298.9762 11.52082033506691
1 00011U 59001  A 71101.33209276  .00000423 +00000-0 +00000-0 0  9998
2 00011 032.8884 033.4280 1624814 232.1328 112.0994 11.52094692510005
1 00011U 59001  A 71109.74016934  .00000274 +00000-0 +00000-0 0  9992
2 00011 032.8944 003.6110 1625196 276.9298 064.9827 11.52098283510975
1 00011U 59001  A 71120.31849589  .00000000 +00000-0 +00000-0 0  9995
2 00011 032.8876 326.0995 1624397 333.2719 019.2372 11.52099372512193
1 00011U 59001  A 71129.77075071  .00000250 +00000-0 +00000-0 0  9998
2 00011 032.8776 292.5756 1623607 023.6615 343.0825 11.52102802513287
1 00011U 59001  A 71148.23730186  .00000506 +00000-0 +00000-0 0  9999
2 00011 032.8634 227.1084 1623119 122.1324 254.7092 11.52113766515410
1 00011U 59001  A 71152.13710471  .00000184 +00000-0 +00000-0 0  9990
2 00011 032.8653 213.2865 1623291 142.9277 229.5277 11.52112612515865
1 00011U 59001  A 71166.00081177  .00000169 +00000-0 +00000-0 0  9998
2 00011 032.8788 164.1282 1622953 216.8324 130.9150 11.52120364517465
1 00011U 59001  A 71183.33754446  .00000000 +00000-0 +00000-0 0  9993
2 00011 032.8879 102.6643 1624225 309.1702 037.5205 11.52123385519465
1 00011U 59001  A 71188.28011237  .00000419 +00000-0 +00000-0 0  9990
2 00011 032.8946 085.1432 1623305 335.5129 017.6033 11.52129555520033
1 00011U 59001  A 71192.44248199  .00000108 +00000-0 +00000-0 0  9997
2 00011 032.8901 070.3964 1622421 357.6962 001.6790 11.52128279520516
1 00011U 59001  A 71201.54746784  .00000404 +00000-0 +00000-0 0  9991
2 00011 032.8824 038.1072 1621165 046.2514 326.1340 11.52133126521569
